ONEWEB-0556             
1 55798U 23029C   25331.87410820 -.00000011  00000+0 -58523-4 0  9994
2 55798  87.9187 314.6324 0002364 108.3872 251.7519 13.20770561134575
ONEWEB-0562             
1 55799U 23029D   25331.70996300  .00000063  00000+0  12360-3 0  9992
2 55799  87.9180 314.6484 0001553 115.7188 244.4106 13.20769891134550
ONEWEB-0563             
1 55800U 23029E   25331.85517230 -.00000115  00000+0 -31581-3 0  9998
2 55800  87.9189 314.6460 0002115  89.6799 270.4577 13.20771937134564
ONEWEB-0564             
1 55801U 23029F   25331.84884741  .00000031  00000+0  44384-4 0  9993
2 55801  87.9185 314.6239 0001593  96.6925 263.4390 13.20772824134575
ONEWEB-0638             
1 55802U 23029G   25331.90930520  .00000115  00000+0  27581-3 0  9990
2 55802  87.8975 329.8699 0001903 104.7556 255.3785 13.14502427132957
ONEWEB-0639             
1 55803U 23029H   25331.58668399 -.00000287  00000+0 -74886-3 0  9999
2 55803  87.9194 345.0973 0002900  82.7293 277.4170 13.19725024132316
ONEWEB-0640             
1 55804U 23029J   25331.76657369  .00000253  00000+0  64824-3 0  9997
2 55804  87.8982 329.8854 0002385 103.6329 256.5066 13.14502741132955
ONEWEB-0641             
1 55805U 23029K   25331.73357842  .00000055  00000+0  10606-3 0  9997
2 55805  87.9205 345.0477 0001979  88.9861 271.1498 13.19724116132342
ONEWEB-0642             
1 55806U 23029L   25331.80465931  .00000012  00000+0 -26098-5 0  9993
2 55806  87.9195 345.0578 0002550  78.3306 281.8113 13.19723330132345
ONEWEB-0643             
1 55807U 23029M   25331.73644335 -.00000068  00000+0 -21738-3 0  9999
2 55807  87.8986 329.8767 0002240  72.4668 287.6707 13.14502637132922
ONEWEB-0644             
1 55808U 23029N   25331.79993964  .00000054  00000+0  10360-3 0  9993
2 55808  87.9197 345.0683 0002119  83.0406 277.0968 13.19725841132345
ONEWEB-0645             
1 55809U 23029P   25331.74622261  .00000204  00000+0  47751-3 0  9999
2 55809  87.9191 345.0734 0002319  92.4401 267.6997 13.19713838132337
ONEWEB-0646             
1 55810U 23029Q   25331.76361363  .00000121  00000+0  26989-3 0  9994
2 55810  87.9199 345.0599 0002020  85.1452 274.9912 13.19726262132322
ONEWEB-0648             
1 55811U 23029R   25331.70473162  .00000041  00000+0  75800-4 0  9998
2 55811  87.8986 329.8451 0002788  86.5914 273.5534 13.14503659132921
ONEWEB-0649             
1 55812U 23029S   25331.78885701 -.00000254  00000+0 -66791-3 0  9999
2 55812  87.9201 345.0506 0002291  88.6335 271.5060 13.19725278132361
ONEWEB-0650             
1 55813U 23029T   25331.78412756  .00000025  00000+0  31312-4 0  9992
2 55813  87.9197 345.0587 0002309  84.5980 275.5416 13.19727008132335
