[{"OBJECT_NAME":"ONEWEB-0556","OBJECT_ID":"2023-029C","EPOCH":"2025-11-27T20:58:42.948480","MEAN_MOTION":13.20770561,"ECCENTRICITY":0.00023646,"INCLINATION":87.9187,"RA_OF_ASC_NODE":314.6324,"ARG_OF_PERICENTER":108.3872,"MEAN_ANOMALY":251.7519,"EPHEMERIS_TYPE":0,"CLASSIFICATION_TYPE":"U","NORAD_CAT_ID":55798,"ELEMENT_SET_NO":999,"REV_AT_EPOCH":13457,"BSTAR":-5.8523419e-5,"MEAN_MOTION_DOT":-1.1e-7,"MEAN_MOTION_DDOT":0},{"OBJECT_NAME":"ONEWEB-0562","OBJECT_ID":"2023-029D","EPOCH":"2025-11-27T17:02:20.803200","MEAN_MOTION":13.20769891,"ECCENTRICITY":0.00015535,"INCLINATION":87.918,"RA_OF_ASC_NODE":314.6484,"ARG_OF_PERICENTER":115.7188,"MEAN_ANOMALY":244.4106,"EPHEMERIS_TYPE":0,"CLASSIFICATION_TYPE":"U","NORAD_CAT_ID":55799,"ELEMENT_SET_NO":999,"REV_AT_EPOCH":13455,"BSTAR":0.00012359538,"MEAN_MOTION_DOT":6.3e-7,"MEAN_MOTION_DDOT":0},{"OBJECT_NAME":"ONEWEB-0563","OBJECT_ID":"2023-029E","EPOCH":"2025-11-27T20:31:26.886720","MEAN_MOTION":13.20771937,"ECCENTRICITY":0.00021152,"INCLINATION":87.9189,"RA_OF_ASC_NODE":314.646,"ARG_OF_PERICENTER":89.6799,"MEAN_ANOMALY":270.4577,"EPHEMERIS_TYPE":0,"CLASSIFICATION_TYPE":"U","NORAD_CAT_ID":55800,"ELEMENT_SET_NO":999,"REV_AT_EPOCH":13456,"BSTAR":-0.00031581493,"MEAN_MOTION_DOT":-1.15e-6,"MEAN_MOTION_DDOT":0},{"OBJECT_NAME":"ONEWEB-0564","OBJECT_ID":"2023-029F","EPOCH":"2025-11-27T20:22:20.416224","MEAN_MOTION":13.20772824,"ECCENTRICITY":0.00015931,"INCLINATION":87.9185,"RA_OF_ASC_NODE":314.6239,"ARG_OF_PERICENTER":96.6925,"MEAN_ANOMALY":263.439,"EPHEMERIS_TYPE":0,"CLASSIFICATION_TYPE":"U","NORAD_CAT_ID":55801,"ELEMENT_SET_NO":999,"REV_AT_EPOCH":13457,"BSTAR":4.4384279e-5,"MEAN_MOTION_DOT":3.1e-7,"MEAN_MOTION_DDOT":0},{"OBJECT_NAME":"ONEWEB-0638","OBJECT_ID":"2023-029G","EPOCH":"2025-11-27T21:49:23.969280","MEAN_MOTION":13.14502427,"ECCENTRICITY":0.00019036,"INCLINATION":87.8975,"RA_OF_ASC_NODE":329.8699,"ARG_OF_PERICENTER":104.7556,"MEAN_ANOMALY":255.3785,"EPHEMERIS_TYPE":0,"CLASSIFICATION_TYPE":"U","NORAD_CAT_ID":55802,"ELEMENT_SET_NO":999,"REV_AT_EPOCH":13295,"BSTAR":0.00027580728,"MEAN_MOTION_DOT":1.15e-6,"MEAN_MOTION_DDOT":0},{"OBJECT_NAME":"ONEWEB-0639","OBJECT_ID":"2023-029H","EPOCH":"2025-11-27T14:04:49.496736","MEAN_MOTION":13.19725024,"ECCENTRICITY":0.00029001,"INCLINATION":87.9194,"RA_OF_ASC_NODE":345.0973,"ARG_OF_PERICENTER":82.7293,"MEAN_ANOMALY":277.417,"EPHEMERIS_TYPE":0,"CLASSIFICATION_TYPE":"U","NORAD_CAT_ID":55803,"ELEMENT_SET_NO":999,"REV_AT_EPOCH":13231,"BSTAR":-0.00074886114,"MEAN_MOTION_DOT":-2.87e-6,"MEAN_MOTION_DDOT":0},{"OBJECT_NAME":"ONEWEB-0640","OBJECT_ID":"2023-029J","EPOCH":"2025-11-27T18:23:51.966816","MEAN_MOTION":13.14502741,"ECCENTRICITY":0.00023851,"INCLINATION":87.8982,"RA_OF_ASC_NODE":329.8854,"ARG_OF_PERICENTER":103.6329,"MEAN_ANOMALY":256.5066,"EPHEMERIS_TYPE":0,"CLASSIFICATION_TYPE":"U","NORAD_CAT_ID":55804,"ELEMENT_SET_NO":999,"REV_AT_EPOCH":13295,"BSTAR":0.00064824303,"MEAN_MOTION_DOT":2.53e-6,"MEAN_MOTION_DDOT":0},{"OBJECT_NAME":"ONEWEB-0641","OBJECT_ID":"2023-029K","EPOCH":"2025-11-27T17:36:21.175488","MEAN_MOTION":13.19724116,"ECCENTRICITY":0.00019795,"INCLINATION":87.9205,"RA_OF_ASC_NODE":345.0477,"ARG_OF_PERICENTER":88.9861,"MEAN_ANOMALY":271.1498,"EPHEMERIS_TYPE":0,"CLASSIFICATION_TYPE":"U","NORAD_CAT_ID":55805,"ELEMENT_SET_NO":999,"REV_AT_EPOCH":13234,"BSTAR":0.00010606296,"MEAN_MOTION_DOT":5.5e-7,"MEAN_MOTION_DDOT":0},{"OBJECT_NAME":"ONEWEB-0642","OBJECT_ID":"2023-029L","EPOCH":"2025-11-27T19:18:42.564384","MEAN_MOTION":13.1972333,"ECCENTRICITY":0.00025509,"INCLINATION":87.9195,"RA_OF_ASC_NODE":345.0578,"ARG_OF_PERICENTER":78.3306,"MEAN_ANOMALY":281.8113,"EPHEMERIS_TYPE":0,"CLASSIFICATION_TYPE":"U","NORAD_CAT_ID":55806,"ELEMENT_SET_NO":999,"REV_AT_EPOCH":13234,"BSTAR":-2.609791e-6,"MEAN_MOTION_DOT":1.2e-7,"MEAN_MOTION_DDOT":0},{"OBJECT_NAME":"ONEWEB-0643","OBJECT_ID":"2023-029M","EPOCH":"2025-11-27T17:40:28.705440","MEAN_MOTION":13.14502637,"ECCENTRICITY":0.00022404,"INCLINATION":87.8986,"RA_OF_ASC_NODE":329.8767,"ARG_OF_PERICENTER":72.4668,"MEAN_ANOMALY":287.6707,"EPHEMERIS_TYPE":0,"CLASSIFICATION_TYPE":"U","NORAD_CAT_ID":55807,"ELEMENT_SET_NO":999,"REV_AT_EPOCH":13292,"BSTAR":-0.00021738376,"MEAN_MOTION_DOT":-6.8e-7,"MEAN_MOTION_DDOT":0},{"OBJECT_NAME":"ONEWEB-0644","OBJECT_ID":"2023-029N","EPOCH":"2025-11-27T19:11:54.784896","MEAN_MOTION":13.19725841,"ECCENTRICITY":0.00021194,"INCLINATION":87.9197,"RA_OF_ASC_NODE":345.0683,"ARG_OF_PERICENTER":83.0406,"MEAN_ANOMALY":277.0968,"EPHEMERIS_TYPE":0,"CLASSIFICATION_TYPE":"U","NORAD_CAT_ID":55808,"ELEMENT_SET_NO":999,"REV_AT_EPOCH":13234,"BSTAR":0.00010359828,"MEAN_MOTION_DOT":5.4e-7,"MEAN_MOTION_DDOT":0},{"OBJECT_NAME":"ONEWEB-0645","OBJECT_ID":"2023-029P","EPOCH":"2025-11-27T17:54:33.633504","MEAN_MOTION":13.19713838,"ECCENTRICITY":0.00023195,"INCLINATION":87.9191,"RA_OF_ASC_NODE":345.0734,"ARG_OF_PERICENTER":92.4401,"MEAN_ANOMALY":267.6997,"EPHEMERIS_TYPE":0,"CLASSIFICATION_TYPE":"U","NORAD_CAT_ID":55809,"ELEMENT_SET_NO":999,"REV_AT_EPOCH":13233,"BSTAR":0.0004775074,"MEAN_MOTION_DOT":2.04e-6,"MEAN_MOTION_DDOT":0},{"OBJECT_NAME":"ONEWEB-0646","OBJECT_ID":"2023-029Q","EPOCH":"2025-11-27T18:19:36.217632","MEAN_MOTION":13.19726262,"ECCENTRICITY":0.00020209,"INCLINATION":87.9199,"RA_OF_ASC_NODE":345.0599,"ARG_OF_PERICENTER":85.1452,"MEAN_ANOMALY":274.9912,"EPHEMERIS_TYPE":0,"CLASSIFICATION_TYPE":"U","NORAD_CAT_ID":55810,"ELEMENT_SET_NO":999,"REV_AT_EPOCH":13232,"BSTAR":0.00026988969,"MEAN_MOTION_DOT":1.21e-6,"MEAN_MOTION_DDOT":0},{"OBJECT_NAME":"ONEWEB-0648","OBJECT_ID":"2023-029R","EPOCH":"2025-11-27T16:54:48.811968","MEAN_MOTION":13.14503659,"ECCENTRICITY":0.00027885,"INCLINATION":87.8986,"RA_OF_ASC_NODE":329.8451,"ARG_OF_PERICENTER":86.5914,"MEAN_ANOMALY":273.5534,"EPHEMERIS_TYPE":0,"CLASSIFICATION_TYPE":"U","NORAD_CAT_ID":55811,"ELEMENT_SET_NO":999,"REV_AT_EPOCH":13292,"BSTAR":7.5799767e-5,"MEAN_MOTION_DOT":4.1e-7,"MEAN_MOTION_DDOT":0},{"OBJECT_NAME":"ONEWEB-0649","OBJECT_ID":"2023-029S","EPOCH":"2025-11-27T18:55:57.245664","MEAN_MOTION":13.19725278,"ECCENTRICITY":0.00022915,"INCLINATION":87.9201,"RA_OF_ASC_NODE":345.0506,"ARG_OF_PERICENTER":88.6335,"MEAN_ANOMALY":271.506,"EPHEMERIS_TYPE":0,"CLASSIFICATION_TYPE":"U","NORAD_CAT_ID":55812,"ELEMENT_SET_NO":999,"REV_AT_EPOCH":13236,"BSTAR":-0.00066791431,"MEAN_MOTION_DOT":-2.54e-6,"MEAN_MOTION_DDOT":0},{"OBJECT_NAME":"ONEWEB-0650","OBJECT_ID":"2023-029T","EPOCH":"2025-11-27T18:49:08.621184","MEAN_MOTION":13.19727008,"ECCENTRICITY":0.00023091,"INCLINATION":87.9197,"RA_OF_ASC_NODE":345.0587,"ARG_OF_PERICENTER":84.598,"MEAN_ANOMALY":275.5416,"EPHEMERIS_TYPE":0,"CLASSIFICATION_TYPE":"U","NORAD_CAT_ID":55813,"ELEMENT_SET_NO":999,"REV_AT_EPOCH":13233,"BSTAR":3.1312323e-5,"MEAN_MOTION_DOT":2.5e-7,"MEAN_MOTION_DDOT":0}]
